STARLINK-31964          
1 59895U 24100L   26068.51189596 -.00001863  00000+0 -58208-4 0  9995
2 59895  42.9965 126.0560 0000771 288.8537  71.2231 15.27573524101086
HAWK-11A                
1 62382U 24247F   26068.51231358  .00009457  00000+0  34106-3 0  9991
2 62382  44.9941 114.3328 0005466 327.3713  32.6832 15.28849427 67741
